{"type": "FeatureCollection", "features": [ {"type": "Feature", "properties": {"norad_id": 33492, "name": "GOSAT (IBUKI)", "group": "resource", "lat": 79.00642983850834, "lon": 42.32668787696667, "alt_km": 660.8577572546474, "timestamp": "2025-12-06T14:35:36.784147+00:00", "meta": {"OBJECT_NAME": "GOSAT (IBUKI)", "OBJECT_ID": "2009-002A", "EPOCH": "2025-12-06T04:24:03.029760", "MEAN_MOTION": 14.67551919, "ECCENTRICITY": 9.667e-05, "INCLINATION": 98.077, "RA_OF_ASC_NODE": 88.8779, "ARG_OF_PERICENTER": 86.8092, "MEAN_ANOMALY": 273.3224, "EPHEMERIS_TYPE": 0, "CLASSIFICATION_TYPE": "U", "NORAD_CAT_ID": 33492, "ELEMENT_SET_NO": 999, "REV_AT_EPOCH": 90315, "BSTAR": 0.0003056437, "MEAN_MOTION_DOT": 1.686e-05, "MEAN_MOTION_DDOT": 0}, "tle": {"line1": "1 33492U 09002A   25340.18336840  .00001686  00000+0  30564-3 0  9990", "line2": "2 33492  98.0770  88.8779 0000966  86.8092 273.3224 14.67551919903154"}}, "geometry": {"type": "Point", "coordinates": [42.32668787696667, 79.00642983850834]}}, {"type": "Feature", "properties": {"norad_id": 35681, "name": "DEIMOS-1", "group": "resource", "lat": -2.7677927853967708, "lon": 141.8726735466667, "alt_km": 648.8397285665069, "timestamp": "2025-12-06T14:35:36.784159+00:00", "meta": {"OBJECT_NAME": "DEIMOS-1", "OBJECT_ID": "2009-041A", "EPOCH": "2025-12-06T04:50:13.582176", "MEAN_MOTION": 14.74936951, "ECCENTRICITY": 0.00026894, "INCLINATION": 97.7153, "RA_OF_ASC_NODE": 141.1097, "ARG_OF_PERICENTER": 92.2308, "MEAN_ANOMALY": 267.921, "EPHEMERIS_TYPE": 0, "CLASSIFICATION_TYPE": "U", "NORAD_CAT_ID": 35681, "ELEMENT_SET_NO": 999, "REV_AT_EPOCH": 87843, "BSTAR": 0.00019979231, "MEAN_MOTION_DOT": 1.295e-05, "MEAN_MOTION_DDOT": 0}, "tle": {"line1": "1 35681U 09041A   25340.20154609  .00001295  00000+0  19979-3 0  9992", "line2": "2 35681  97.7153 141.1097 0002689  92.2308 267.9210 14.74936951878435"}}, "geometry": {"type": "Point", "coordinates": [141.8726735466667, -2.7677927853967708]}}, {"type": "Feature", "properties": {"norad_id": 35682, "name": "DUBAISAT-1", "group": "resource", "lat": -59.26639562053718, "lon": 125.02362084095537, "alt_km": 647.9837465109813, "timestamp": "2025-12-06T14:35:36.784170+00:00", "meta": {"OBJECT_NAME": "DUBAISAT-1", "OBJECT_ID": "2009-041B", "EPOCH": "2025-12-06T03:27:56.647296", "MEAN_MOTION": 14.74574301, "ECCENTRICITY": 0.00099218, "INCLINATION": 97.9789, "RA_OF_ASC_NODE": 110.9218, "ARG_OF_PERICENTER": 337.3003, "MEAN_ANOMALY": 22.7765, "EPHEMERIS_TYPE": 0, "CLASSIFICATION_TYPE": "U", "NORAD_CAT_ID": 35682, "ELEMENT_SET_NO": 999, "REV_AT_EPOCH": 87664, "BSTAR": 0.00039842864, "MEAN_MOTION_DOT": 2.605e-05, "MEAN_MOTION_DDOT": 0}, "tle": {"line1": "1 35682U 09041B   25340.14440564  .00002605  00000+0  39843-3 0  9992", "line2": "2 35682  97.9789 110.9218 0009921 337.3003  22.7765 14.74574301876643"}}, "geometry": {"type": "Point", "coordinates": [125.02362084095537, -59.26639562053718]}}, {"type": "Feature", "properties": {"norad_id": 35931, "name": "OCEANSAT-2", "group": "resource", "lat": -30.068129864686988, "lon": -13.367374883271419, "alt_km": 901.2222068052779, "timestamp": "2025-12-06T14:35:36.784181+00:00", "meta": {"OBJECT_NAME": "OCEANSAT-2", "OBJECT_ID": "2009-051A", "EPOCH": "2025-12-06T06:09:35.703072", "MEAN_MOTION": 13.9962617, "ECCENTRICITY": 0.00164702, "INCLINATION": 98.2228, "RA_OF_ASC_NODE": 341.5148, "ARG_OF_PERICENTER": 61.926, "MEAN_ANOMALY": 298.3569, "EPHEMERIS_TYPE": 0, "CLASSIFICATION_TYPE": "U", "NORAD_CAT_ID": 35931, "ELEMENT_SET_NO": 999, "REV_AT_EPOCH": 85234, "BSTAR": -6.503688e-05, "MEAN_MOTION_DOT": -1.32e-06, "MEAN_MOTION_DDOT": 0}, "tle": {"line1": "1 35931U 09051A   25340.25666323 -.00000132  00000+0 -65037-4 0  9995", "line2": "2 35931  98.2228 341.5148 0016470  61.9260 298.3569 13.99626170852340"}}, "geometry": {"type": "Point", "coordinates": [-13.367374883271419, -30.068129864686988]}}, {"type": "Feature", "properties": {"norad_id": 35946, "name": "WORLDVIEW-2 (WV-2)", "group": "resource", "lat": -27.303810660472713, "lon": 56.19320586271446, "alt_km": 773.2627570071927, "timestamp": "2025-12-06T14:35:36.784191+00:00", "meta": {"OBJECT_NAME": "WORLDVIEW-2 (WV-2)", "OBJECT_ID": "2009-055A", "EPOCH": "2025-12-06T06:22:12.106560", "MEAN_MOTION": 14.37648341, "ECCENTRICITY": 0.00054109, "INCLINATION": 98.4767, "RA_OF_ASC_NODE": 51.4401, "ARG_OF_PERICENTER": 82.4545, "MEAN_ANOMALY": 277.7256, "EPHEMERIS_TYPE": 0, "CLASSIFICATION_TYPE": "U", "NORAD_CAT_ID": 35946, "ELEMENT_SET_NO": 999, "REV_AT_EPOCH": 84792, "BSTAR": 0.00015012337, "MEAN_MOTION_DOT": 4.07e-06, "MEAN_MOTION_DDOT": 0}, "tle": {"line1": "1 35946U 09055A   25340.26541790  .00000407  00000+0  15012-3 0  9996", "line2": "2 35946  98.4767  51.4401 0005410  82.4545 277.7256 14.37648341847920"}}, "geometry": {"type": "Point", "coordinates": [56.19320586271446, -27.303810660472713]}}, {"type": "Feature", "properties": {"norad_id": 36036, "name": "SMOS", "group": "resource", "lat": -37.38387100173665, "lon": 172.26058451979142, "alt_km": 766.1612772145381, "timestamp": "2025-12-06T14:35:36.784202+00:00", "meta": {"OBJECT_NAME": "SMOS", "OBJECT_ID": "2009-059A", "EPOCH": "2025-12-06T06:25:45.772896", "MEAN_MOTION": 14.39732741, "ECCENTRICITY": 0.0001133, "INCLINATION": 98.4387, "RA_OF_ASC_NODE": 165.4122, "ARG_OF_PERICENTER": 84.8118, "MEAN_ANOMALY": 275.3199, "EPHEMERIS_TYPE": 0, "CLASSIFICATION_TYPE": "U", "NORAD_CAT_ID": 36036, "ELEMENT_SET_NO": 999, "REV_AT_EPOCH": 84569, "BSTAR": 0.00026315864, "MEAN_MOTION_DOT": 7.81e-06, "MEAN_MOTION_DDOT": 0}, "tle": {"line1": "1 36036U 09059A   25340.26789089  .00000781  00000+0  26316-3 0  9990", "line2": "2 36036  98.4387 165.4122 0001133  84.8118 275.3199 14.39732741845697"}}, "geometry": {"type": "Point", "coordinates": [172.26058451979142, -37.38387100173665]}}, {"type": "Feature", "properties": {"norad_id": 36110, "name": "YAOGAN-7", "group": "resource", "lat": 29.856315953449347, "lon": -142.26140813926776, "alt_km": 634.4574242184135, "timestamp": "2025-12-06T14:35:36.784212+00:00", "meta": {"OBJECT_NAME": "YAOGAN-7", "OBJECT_ID": "2009-069A", "EPOCH": "2025-12-06T04:42:24.992640", "MEAN_MOTION": 14.77717715, "ECCENTRICITY": 0.00236456, "INCLINATION": 98.0302, "RA_OF_ASC_NODE": 221.9763, "ARG_OF_PERICENTER": 303.5107, "MEAN_ANOMALY": 56.3844, "EPHEMERIS_TYPE": 0, "CLASSIFICATION_TYPE": "U", "NORAD_CAT_ID": 36110, "ELEMENT_SET_NO": 999, "REV_AT_EPOCH": 86112, "BSTAR": 0.00020199342, "MEAN_MOTION_DOT": 1.401e-05, "MEAN_MOTION_DDOT": 0}, "tle": {"line1": "1 36110U 09069A   25340.19612260  .00001401  00000+0  20199-3 0  9995", "line2": "2 36110  98.0302 221.9763 0023645 303.5107  56.3844 14.77717715861129"}}, "geometry": {"type": "Point", "coordinates": [-142.26140813926776, 29.856315953449347]}}, {"type": "Feature", "properties": {"norad_id": 36605, "name": "TANDEM-X", "group": "resource", "lat": 79.73157623715285, "lon": -60.125864304253724, "alt_km": 499.70590016803, "timestamp": "2025-12-06T14:35:36.784223+00:00", "meta": {"OBJECT_NAME": "TANDEM-X", "OBJECT_ID": "2010-030A", "EPOCH": "2025-12-05T14:31:03.216576", "MEAN_MOTION": 15.19154888, "ECCENTRICITY": 0.0001924, "INCLINATION": 97.4449, "RA_OF_ASC_NODE": 345.0902, "ARG_OF_PERICENTER": 96.7979, "MEAN_ANOMALY": 263.3475, "EPHEMERIS_TYPE": 0, "CLASSIFICATION_TYPE": "U", "NORAD_CAT_ID": 36605, "ELEMENT_SET_NO": 999, "REV_AT_EPOCH": 85725, "BSTAR": 0.00014316692, "MEAN_MOTION_DOT": 2.941e-05, "MEAN_MOTION_DDOT": 0}, "tle": {"line1": "1 36605U 10030A   25339.60489834  .00002941  00000+0  14317-3 0  9992", "line2": "2 36605  97.4449 345.0902 0001924  96.7979 263.3475 15.19154888857252"}}, "geometry": {"type": "Point", "coordinates": [-60.125864304253724, 79.73157623715285]}}, {"type": "Feature", "properties": {"norad_id": 36795, "name": "CARTOSAT-2B", "group": "resource", "lat": -64.39541317395727, "lon": 46.42763711057158, "alt_km": 648.9731102796086, "timestamp": "2025-12-06T14:35:36.784233+00:00", "meta": {"OBJECT_NAME": "CARTOSAT-2B", "OBJECT_ID": "2010-035A", "EPOCH": "2025-12-06T06:46:12.493920", "MEAN_MOTION": 14.78774622, "ECCENTRICITY": 0.00129072, "INCLINATION": 97.7861, "RA_OF_ASC_NODE": 29.5221, "ARG_OF_PERICENTER": 96.6159, "MEAN_ANOMALY": 263.6523, "EPHEMERIS_TYPE": 0, "CLASSIFICATION_TYPE": "U", "NORAD_CAT_ID": 36795, "ELEMENT_SET_NO": 999, "REV_AT_EPOCH": 83134, "BSTAR": 0.00021929947, "MEAN_MOTION_DOT": 1.563e-05, "MEAN_MOTION_DDOT": 0}, "tle": {"line1": "1 36795U 10035A   25340.28208905  .00001563  00000+0  21930-3 0  9999", "line2": "2 36795  97.7861  29.5221 0012907  96.6159 263.6523 14.78774622831340"}}, "geometry": {"type": "Point", "coordinates": [46.42763711057158, -64.39541317395727]}}, {"type": "Feature", "properties": {"norad_id": 36834, "name": "YAOGAN-10", "group": "resource", "lat": -65.2030836482984, "lon": 162.95110571386422, "alt_km": 623.1585033680931, "timestamp": "2025-12-06T14:35:36.784244+00:00", "meta": {"OBJECT_NAME": "YAOGAN-10", "OBJECT_ID": "2010-038A", "EPOCH": "2025-12-06T05:41:50.280864", "MEAN_MOTION": 14.84570152, "ECCENTRICITY": 0.00014958, "INCLINATION": 97.9142, "RA_OF_ASC_NODE": 0.1069, "ARG_OF_PERICENTER": 84.564, "MEAN_ANOMALY": 341.9462, "EPHEMERIS_TYPE": 0, "CLASSIFICATION_TYPE": "U", "NORAD_CAT_ID": 36834, "ELEMENT_SET_NO": 999, "REV_AT_EPOCH": 82857, "BSTAR": 0.00042319737, "MEAN_MOTION_DOT": 3.519e-05, "MEAN_MOTION_DDOT": 0}, "tle": {"line1": "1 36834U 10038A   25340.23738751  .00003519  00000+0  42320-3 0  9997", "line2": "2 36834  97.9142   0.1069 0001495  84.5640 341.9462 14.84570152828576"}}, "geometry": {"type": "Point", "coordinates": [162.95110571386422, -65.2030836482984]}}]}